[{"OBJECT_NAME":"STARLINK-30299","OBJECT_ID":"2023-122U","EPOCH":"2026-03-09T22:00:01.999584","MEAN_MOTION":15.26729319,"ECCENTRICITY":0.00012109,"INCLINATION":43.0012,"RA_OF_ASC_NODE":91.1032,"ARG_OF_PERICENTER":264.2979,"MEAN_ANOMALY":72.0056,"EPHEMERIS_TYPE":0,"CLASSIFICATION_TYPE":"U","NORAD_CAT_ID":57650,"ELEMENT_SET_NO":999,"REV_AT_EPOCH":578,"BSTAR":0.0013863718,"MEAN_MOTION_DOT":0.00037103,"MEAN_MOTION_DDOT":0},{"OBJECT_NAME":"CZ-6A DEB","OBJECT_ID":"2024-140NC","EPOCH":"2026-03-09T01:19:44.598720","MEAN_MOTION":14.85954551,"ECCENTRICITY":0.01874643,"INCLINATION":89.0262,"RA_OF_ASC_NODE":281.6645,"ARG_OF_PERICENTER":160.2054,"MEAN_ANOMALY":200.6578,"EPHEMERIS_TYPE":0,"CLASSIFICATION_TYPE":"U","NORAD_CAT_ID":61086,"ELEMENT_SET_NO":999,"REV_AT_EPOCH":8276,"BSTAR":0.00091551765,"MEAN_MOTION_DOT":0.00011041,"MEAN_MOTION_DDOT":0}]
